{
    "links": {
        "self": "http://www.neowsapp.com/rest/v1/neo/3843805?api_key=iIulBulltgU6a56xZRHN4H3l9WmuAYTsLGpBGhQ2"
    },
    "id": "3843805",
    "neo_reference_id": "3843805",
    "name": "(2019 RY1)",
    "designation": "2019 RY1",
    "nasa_jpl_url": "http://ssd.jpl.nasa.gov/sbdb.cgi?sstr=3843805",
    "absolute_magnitude_h": 20.9,
    "estimated_diameter": {
        "kilometers": {
            "estimated_diameter_min": 0.1756123185,
            "estimated_diameter_max": 0.3926810818
        },
        "meters": {
            "estimated_diameter_min": 175.6123184804,
            "estimated_diameter_max": 392.6810818086
        },
        "miles": {
            "estimated_diameter_min": 0.1091204019,
            "estimated_diameter_max": 0.2440006365
        },
        "feet": {
            "estimated_diameter_min": 576.1559189633,
            "estimated_diameter_max": 1288.3238004408
        }
    },
    "is_potentially_hazardous_asteroid": false,
    "close_approach_data": [
        {
            "close_approach_date": "1996-08-21",
            "close_approach_date_full": "1996-Aug-21 02:19",
            "epoch_date_close_approach": 840593940000,
            "relative_velocity": {
                "kilometers_per_second": "11.176270226",
                "kilometers_per_hour": "40234.572813532",
                "miles_per_hour": "25000.1988684971"
            },
            "miss_distance": {
                "astronomical": "0.3323091903",
                "lunar": "129.2682750267",
                "kilometers": "49712747.050304661",
                "miles": "30890068.6255438818"
            },
            "orbiting_body": "Earth"
        },
        {
            "close_approach_date": "1999-12-20",
            "close_approach_date_full": "1999-Dec-20 15:56",
            "epoch_date_close_approach": 945705360000,
            "relative_velocity": {
                "kilometers_per_second": "14.0381305454",
                "kilometers_per_hour": "50537.2699632812",
                "miles_per_hour": "31401.8942169066"
            },
            "miss_distance": {
                "astronomical": "0.0765834763",
                "lunar": "29.7909722807",
                "kilometers": "11456724.931675481",
                "miles": "7118878.7657483978"
            },
            "orbiting_body": "Mars"
        },
        {
            "close_approach_date": "2019-08-21",
            "close_approach_date_full": "2019-Aug-21 20:17",
            "epoch_date_close_approach": 1566418620000,
            "relative_velocity": {
                "kilometers_per_second": "11.1984242284",
                "kilometers_per_hour": "40314.3272222206",
                "miles_per_hour": "25049.7551564959"
            },
            "miss_distance": {
                "astronomical": "0.3344902717",
                "lunar": "130.1167156913",
                "kilometers": "50039032.182041279",
                "miles": "31092812.8050324902"
            },
            "orbiting_body": "Earth"
        },
        {
            "close_approach_date": "2042-08-21",
            "close_approach_date_full": "2042-Aug-21 12:20",
            "epoch_date_close_approach": 2292236400000,
            "relative_velocity": {
                "kilometers_per_second": "11.1872572746",
                "kilometers_per_hour": "40274.1261885161",
                "miles_per_hour": "25024.7757975254"
            },
            "miss_distance": {
                "astronomical": "0.3426135114",
                "lunar": "133.2766559346",
                "kilometers": "51254251.538660718",
                "miles": "31847915.0986771884"
            },
            "orbiting_body": "Earth"
        }
    ],
    "orbital_data": {
        "orbit_id": "7",
        "orbit_determination_date": "2019-10-20 05:52:55",
        "first_observation_date": "2019-09-04",
        "last_observation_date": "2019-10-19",
        "data_arc_in_days": 45,
        "observations_used": 62,
        "orbit_uncertainty": "6",
        "minimum_orbit_intersection": ".235871",
        "jupiter_tisserand_invariant": "3.409",
        "epoch_osculation": "2459000.5",
        "eccentricity": ".4930165104882245",
        "semi_major_axis": "2.210195753420087",
        "inclination": "21.59671902575185",
        "ascending_node_longitude": "349.062815455146",
        "orbital_period": "1200.174892328293",
        "perihelion_distance": "1.120532755573024",
        "perihelion_argument": "302.8160172970732",
        "aphelion_distance": "3.299858751267151",
        "perihelion_time": "2458667.482108373274",
        "mean_anomaly": "99.89080904121094",
        "mean_motion": ".299956283289358",
        "equinox": "J2000",
        "orbit_class": {
            "orbit_class_type": "AMO",
            "orbit_class_description": "Near-Earth asteroid orbits similar to that of 1221 Amor",
            "orbit_class_range": "1.017 AU < q (perihelion) < 1.3 AU"
        }
    },
    "is_sentry_object": false
}